NORAD_CAT_ID,OBJECT_NAME,OBJECT_TYPE,EPOCH,MEAN_MOTION,ECCENTRICITY,INCLINATION,RA_OF_ASC_NODE,ARG_OF_PERICENTER,MEAN_ANOMALY,BSTAR,MEAN_MOTION_DOT,MEAN_MOTION_DDOT,TLE_LINE0,TLE_LINE1,TLE_LINE2,SEMIMAJOR_AXIS,PERIOD,APOGEE,PERIGEE,DECAYED
51467.0,STARLINK-3178,PAYLOAD,2023-07-29 09:59:07,15.08855219,0.0001399,53.217,243.0243,91.6046,268.5106,-0.00017997,-3.152e-05,0.0,0 STARLINK-3178,1 51467U 22010M   23210.41605460 -.00003152  00000-0 -17997-3 0  9991,2 51467  53.2170 243.0243 0001399  91.6046 268.5106 15.08855219 83259,6917.834,95.437,540.667,538.731,0.0
51467.0,STARLINK-3178,PAYLOAD,2023-07-29 19:31:24,15.08882751,0.0001166,53.2163,241.2395,97.9069,262.2055,-0.00048373,-7.987e-05,0.0,0 STARLINK-3178,1 51467U 22010M   23210.81348274 -.00007987  00000-0 -48373-3 0  9994,2 51467  53.2163 241.2395 0001166  97.9069 262.2055 15.08882751 83317,6917.75,95.435,540.421,538.808,0.0
51467.0,STARLINK-3178,PAYLOAD,2023-07-30 01:52:58,15.08838642,0.0001167,53.2163,240.0499,90.7112,269.4014,0.00013316,1.832e-05,0.0,0 STARLINK-3178,1 51467U 22010M   23211.07845301  .00001832  00000-0  13316-3 0  9996,2 51467  53.2163 240.0499 0001167  90.7112 269.4014 15.08838642 83358,6917.885,95.438,540.557,538.942,0.0
51467.0,STARLINK-3178,PAYLOAD,2023-07-31 01:43:45,15.08831401,0.0001158,53.2151,235.5878,95.7636,264.3488,8.619e-05,1.084e-05,0.0,0 STARLINK-3178,1 51467U 22010M   23212.07205886  .00001084  00000-0  86190-4 0  9995,2 51467  53.2151 235.5878 0001158  95.7636 264.3488 15.08831401 83503,6917.907,95.438,540.573,538.971,0.0
51467.0,STARLINK-3178,PAYLOAD,2023-07-31 23:59:09,15.08842111,0.0001239,53.2163,231.4262,85.3005,274.8129,-8.658e-07,-3.02e-06,0.0,0 STARLINK-3178,1 51467U 22010M   23212.99941530 -.00000302  00000-0 -86580-6 0  9998,2 51467  53.2163 231.4262 0001239  85.3005 274.8129 15.08842111 83646,6917.874,95.437,540.596,538.882,0.0
51467.0,STARLINK-3178,PAYLOAD,2023-08-02 01:25:19,15.08834704,0.0001221,53.2157,226.6675,84.2066,275.9066,3.908e-05,3.34e-06,0.0,0 STARLINK-3178,1 51467U 22010M   23214.05925761  .00000334  00000-0  39080-4 0  9999,2 51467  53.2157 226.6675 0001221  84.2066 275.9066 15.08834704 83808,6917.897,95.438,540.606,538.917,0.0
51467.0,STARLINK-3178,PAYLOAD,2023-08-03 06:02:16,15.08838216,0.0001218,53.2158,221.3159,83.9325,276.1806,1.2754e-05,-8.5e-07,0.0,0 STARLINK-3178,1 51467U 22010M   23215.25157885 -.00000085  00000-0  12754-4 0  9999,2 51467  53.2158 221.3159 0001218  83.9325 276.1806 15.08838216 83984,6917.886,95.438,540.593,538.908,0.0
51467.0,STARLINK-3178,PAYLOAD,2023-08-04 07:28:27,15.08834949,0.0001219,53.2159,216.5585,84.7396,275.3735,1.1573e-05,-1.04e-06,0.0,0 STARLINK-3178,1 51467U 22010M   23216.31142362 -.00000104  00000-0  11573-4 0  9991,2 51467  53.2159 216.5585 0001219  84.7396 275.3735 15.08834949 84142,6917.896,95.438,540.604,538.918,0.0
51467.0,STARLINK-3178,PAYLOAD,2023-08-05 07:19:13,15.08841093,0.0001273,53.2162,212.0969,88.6006,271.5132,6.8711e-05,8.06e-06,0.0,0 STARLINK-3178,1 51467U 22010M   23217.30502007  .00000806  00000-0  68711-4 0  9991,2 51467  53.2162 212.0969 0001273  88.6006 271.5132 15.08841093 84297,6917.877,95.437,540.623,538.861,0.0
51467.0,STARLINK-3178,PAYLOAD,2023-08-06 16:42:19,15.08838006,0.0001337,53.2166,205.8525,86.1842,273.9303,4.6572e-05,4.53e-06,0.0,0 STARLINK-3178,1 51467U 22010M   23218.69606462  .00000453  00000-0  46572-4 0  9993,2 51467  53.2166 205.8525 0001337  86.1842 273.9303 15.08838006 84501,6917.886,95.438,540.676,538.827,0.0
51467.0,STARLINK-3178,PAYLOAD,2023-08-07 22:54:39,15.08841316,0.0001285,53.2157,200.2024,89.2878,270.8261,2.8754e-05,1.7e-06,0.0,0 STARLINK-3178,1 51467U 22010M   23219.95462265  .00000170  00000-0  28754-4 0  9992,2 51467  53.2157 200.2024 0001285  89.2878 270.8261 15.08841316 84696,6917.876,95.437,540.63,538.852,0.0
51467.0,STARLINK-3178,PAYLOAD,2023-08-08 05:16:11,15.08846531,0.0001282,53.2156,199.0124,91.6668,268.4471,7.0601e-05,8.36e-06,0.0,0 STARLINK-3178,1 51467U 22010M   23220.21957757  .00000836  00000-0  70601-4 0  9995,2 51467  53.2156 199.0124 0001282  91.6668 268.4471 15.08846531 84737,6917.86,95.437,540.612,538.839,0.0
51467.0,STARLINK-3178,PAYLOAD,2023-08-08 22:45:26,15.08835394,0.0001264,53.2155,195.7421,91.2741,268.8396,-1.0282e-06,-3.04e-06,0.0,0 STARLINK-3178,1 51467U 22010M   23220.94822675 -.00000304  00000-0 -10282-5 0  9997,2 51467  53.2155 195.7421 0001264  91.2741 268.8396 15.08835394 84844,6917.894,95.438,540.634,538.885,0.0
51467.0,STARLINK-3178,PAYLOAD,2023-08-10 08:08:32,15.08837287,0.00013,53.2166,189.4965,91.5584,268.5557,-2.5749e-05,-6.98e-06,0.0,0 STARLINK-3178,1 51467U 22010M   23222.33926915 -.00000698  00000-0 -25749-4 0  9993,2 51467  53.2166 189.4965 0001300  91.5584 268.5557 15.08837287 85051,6917.889,95.438,540.653,538.854,0.0
51467.0,STARLINK-3178,PAYLOAD,2023-08-11 14:20:52,15.08836126,0.0001367,53.2168,183.8476,83.6792,276.4355,5.2559e-05,5.49e-06,0.0,0 STARLINK-3178,1 51467U 22010M   23223.59783151  .00000549  00000-0  52559-4 0  9997,2 51467  53.2168 183.8476 0001367  83.6792 276.4355 15.08836126 85240,6917.892,95.438,540.703,538.812,0.0
51467.0,STARLINK-3178,PAYLOAD,2023-08-12 20:33:12,15.08835927,0.0001079,53.2166,178.197,94.817,265.2945,3.5216e-05,2.73e-06,0.0,0 STARLINK-3178,1 51467U 22010M   23224.85639430  .00000273  00000-0  35216-4 0  9992,2 51467  53.2166 178.1970 0001079  94.8170 265.2945 15.08835927 85438,6917.893,95.438,540.504,539.011,0.0
51467.0,STARLINK-3178,PAYLOAD,2023-08-13 06:05:30,15.08847957,9.38e-05,53.2165,176.413,81.814,278.2959,7.6366e-05,9.28e-06,0.0,0 STARLINK-3178,1 51467U 22010M   23225.25382525  .00000928  00000-0  76366-4 0  9995,2 51467  53.2165 176.4130 0000938  81.8140 278.2959 15.08847957 85493,6917.856,95.437,540.37,539.072,0.0
51467.0,STARLINK-3178,PAYLOAD,2023-08-13 15:37:49,15.08830252,0.0001602,53.2157,174.6271,106.1436,253.9733,0.00019437,2.806e-05,0.0,0 STARLINK-3178,1 51467U 22010M   23225.65127238  .00002806  00000-0  19437-3 0  9999,2 51467  53.2157 174.6271 0001602 106.1436 253.9733 15.08830252 85555,6917.91,95.438,540.883,538.667,0.0
51467.0,STARLINK-3178,PAYLOAD,2023-08-14 05:56:17,15.08841591,0.0001342,53.2152,171.9525,105.7184,254.3956,1.5146e-05,-4.7e-07,0.0,0 STARLINK-3178,1 51467U 22010M   23226.24743030 -.00000047  00000-0  15146-4 0  9999,2 51467  53.2152 171.9525 0001342 105.7184 254.3956 15.08841591 85648,6917.876,95.437,540.669,538.812,0.0
51467.0,STARLINK-3178,PAYLOAD,2023-08-15 02:36:19,15.08835031,0.0001457,53.2161,168.0869,97.311,262.8048,7.2977e-06,-1.72e-06,0.0,0 STARLINK-3178,1 51467U 22010M   23227.10855520 -.00000172  00000-0  72977-5 0  9998,2 51467  53.2161 168.0869 0001457  97.3110 262.8048 15.08835031 85770,6917.896,95.438,540.769,538.753,0.0
51467.0,STARLINK-3178,PAYLOAD,2023-08-16 02:27:05,15.08840101,0.000112,53.218,163.6246,112.868,247.2431,8.0798e-05,9.98e-06,0.0,0 STARLINK-3178,1 51467U 22010M   23228.10214764  .00000998  00000-0  80798-4 0  9992,2 51467  53.2180 163.6246 0001120 112.8680 247.2431 15.08840101 85927,6917.88,95.438,540.52,538.97,0.0
51467.0,STARLINK-3178,PAYLOAD,2023-08-16 05:37:51,15.08850312,0.0001482,53.2181,163.03,98.9067,261.2093,-5.0545e-05,-1.093e-05,0.0,0 STARLINK-3178,1 51467U 22010M   23228.23462629 -.00001093  00000-0 -50545-4 0  9997,2 51467  53.2181 163.0300 0001482  98.9067 261.2093 15.08850312 85944,6917.849,95.437,540.739,538.689,0.0
51467.0,STARLINK-3178,PAYLOAD,2023-08-17 02:17:52,15.08841034,0.0001296,53.2171,159.1668,85.102,275.012,5.0807e-06,-2.07e-06,0.0,0 STARLINK-3178,1 51467U 22010M   23229.09575050 -.00000207  00000-0  50807-5 0  9992,2 51467  53.2171 159.1668 0001296  85.1020 275.0120 15.08841034 86076,6917.877,95.437,540.639,538.846,0.0
51467.0,STARLINK-3178,PAYLOAD,2023-08-18 03:44:02,15.08844163,0.000139,53.2184,154.4077,90.8063,269.3089,1.2419e-05,-9e-07,0.0,0 STARLINK-3178,1 51467U 22010M   23230.15558823 -.00000090  00000-0  12419-4 0  9996,2 51467  53.2184 154.4077 0001390  90.8063 269.3089 15.08844163 86231,6917.868,95.437,540.694,538.771,0.0
51467.0,STARLINK-3178,PAYLOAD,2023-08-19 03:34:50,15.08838094,0.00013,53.2172,149.9495,87.8794,272.2347,-4.7616e-05,-1.046e-05,0.0,0 STARLINK-3178,1 51467U 22010M   23231.14919766 -.00001046  00000-0 -47616-4 0  9993,2 51467  53.2172 149.9495 0001300  87.8794 272.2347 15.08838094 86381,6917.886,95.438,540.651,538.852,0.0
51467.0,STARLINK-3178,PAYLOAD,2023-08-20 05:01:00,15.08840291,0.0001402,53.2173,145.1908,90.756,269.3592,-9.7516e-06,-4.43e-06,0.0,0 STARLINK-3178,1 51467U 22010M   23232.20903906 -.00000443  00000-0 -97516-5 0  9995,2 51467  53.2173 145.1908 0001402  90.7560 269.3592 15.08840291 86545,6917.879,95.438,540.714,538.775,0.0
51467.0,STARLINK-3178,PAYLOAD,2023-08-21 03:16:24,15.08847725,0.0001374,53.2178,141.0276,98.1796,261.9352,0.00014544,2.028e-05,0.0,0 STARLINK-3178,1 51467U 22010M   23233.13638959  .00002028  00000-0  14544-3 0  9998,2 51467  53.2178 141.0276 0001374  98.1796 261.9352 15.08847725 86680,6917.857,95.437,540.672,538.771,0.0
51467.0,STARLINK-3178,PAYLOAD,2023-08-22 03:07:11,15.08843617,0.0001445,53.2177,136.5674,89.6119,270.5039,9.8908e-06,-1.31e-06,0.0,0 STARLINK-3178,1 51467U 22010M   23234.12999876 -.00000131  00000-0  98908-5 0  9998,2 51467  53.2177 136.5674 0001445  89.6119 270.5039 15.08843617 86834,6917.869,95.437,540.734,538.735,0.0
51467.0,STARLINK-3178,PAYLOAD,2023-08-22 23:47:13,15.08817545,0.0001444,53.2185,132.7007,95.7539,264.3618,0.00027614,4.107e-05,0.0,0 STARLINK-3178,1 51467U 22010M   23234.99112286  .00004107  00000-0  27614-3 0  9995,2 51467  53.2185 132.7007 0001444  95.7539 264.3618 15.08817545 86963,6917.949,95.439,540.813,538.815,0.0
51467.0,STARLINK-3178,PAYLOAD,2023-08-23 02:57:58,15.08841798,0.0001196,53.2184,132.1064,98.75,261.3628,0.00013141,1.804e-05,0.0,0 STARLINK-3178,1 51467U 22010M   23235.12359385  .00001804  00000-0  13141-3 0  9995,2 51467  53.2184 132.1064 0001196  98.7500 261.3628 15.08841798 86981,6917.875,95.437,540.567,538.913,0.0
